{
    "links": {
        "self": "http://www.neowsapp.com/rest/v1/neo/3776108?api_key=iIulBulltgU6a56xZRHN4H3l9WmuAYTsLGpBGhQ2"
    },
    "id": "3776108",
    "neo_reference_id": "3776108",
    "name": "(2017 MF7)",
    "designation": "2017 MF7",
    "nasa_jpl_url": "http://ssd.jpl.nasa.gov/sbdb.cgi?sstr=3776108",
    "absolute_magnitude_h": 25.9,
    "estimated_diameter": {
        "kilometers": {
            "estimated_diameter_min": 0.0175612318,
            "estimated_diameter_max": 0.0392681082
        },
        "meters": {
            "estimated_diameter_min": 17.561231848,
            "estimated_diameter_max": 39.2681081809
        },
        "miles": {
            "estimated_diameter_min": 0.0109120402,
            "estimated_diameter_max": 0.0244000636
        },
        "feet": {
            "estimated_diameter_min": 57.6155918963,
            "estimated_diameter_max": 128.8323800441
        }
    },
    "is_potentially_hazardous_asteroid": false,
    "close_approach_data": [
        {
            "close_approach_date": "2014-07-09",
            "close_approach_date_full": "2014-Jul-09 06:32",
            "epoch_date_close_approach": 1404887520000,
            "relative_velocity": {
                "kilometers_per_second": "18.3279754444",
                "kilometers_per_hour": "65980.7115997306",
                "miles_per_hour": "40997.8482715104"
            },
            "miss_distance": {
                "astronomical": "0.2525843448",
                "lunar": "98.2553101272",
                "kilometers": "37786079.977425576",
                "miles": "23479181.3538659088"
            },
            "orbiting_body": "Earth"
        },
        {
            "close_approach_date": "2017-06-17",
            "close_approach_date_full": "2017-Jun-17 09:18",
            "epoch_date_close_approach": 1497691080000,
            "relative_velocity": {
                "kilometers_per_second": "11.3554745592",
                "kilometers_per_hour": "40879.7084131913",
                "miles_per_hour": "25401.0610415188"
            },
            "miss_distance": {
                "astronomical": "0.0068311436",
                "lunar": "2.6573148604",
                "kilometers": "1021924.532224132",
                "miles": "634994.4592397416"
            },
            "orbiting_body": "Earth"
        },
        {
            "close_approach_date": "2017-06-17",
            "close_approach_date_full": "2017-Jun-17 12:34",
            "epoch_date_close_approach": 1497702840000,
            "relative_velocity": {
                "kilometers_per_second": "12.1834666162",
                "kilometers_per_hour": "43860.4798183582",
                "miles_per_hour": "27253.1964738015"
            },
            "miss_distance": {
                "astronomical": "0.0089774596",
                "lunar": "3.4922317844",
                "kilometers": "1343008.834171052",
                "miles": "834506.9929504376"
            },
            "orbiting_body": "Moon"
        },
        {
            "close_approach_date": "2020-06-14",
            "close_approach_date_full": "2020-Jun-14 13:10",
            "epoch_date_close_approach": 1592140200000,
            "relative_velocity": {
                "kilometers_per_second": "10.9240840432",
                "kilometers_per_hour": "39326.7025554613",
                "miles_per_hour": "24436.0835961976"
            },
            "miss_distance": {
                "astronomical": "0.0094545989",
                "lunar": "3.6778389721",
                "kilometers": "1414387.857144343",
                "miles": "878859.8611562134"
            },
            "orbiting_body": "Earth"
        },
        {
            "close_approach_date": "2020-06-14",
            "close_approach_date_full": "2020-Jun-14 16:48",
            "epoch_date_close_approach": 1592153280000,
            "relative_velocity": {
                "kilometers_per_second": "11.7693299793",
                "kilometers_per_hour": "42369.5879254361",
                "miles_per_hour": "26326.8142306689"
            },
            "miss_distance": {
                "astronomical": "0.0073273311",
                "lunar": "2.8503317979",
                "kilometers": "1096153.125344757",
                "miles": "681117.9682293666"
            },
            "orbiting_body": "Moon"
        }
    ],
    "orbital_data": {
        "orbit_id": "2",
        "orbit_determination_date": "2017-07-16 06:22:10",
        "first_observation_date": "2017-06-24",
        "last_observation_date": "2017-07-15",
        "data_arc_in_days": 21,
        "observations_used": 13,
        "orbit_uncertainty": "6",
        "minimum_orbit_intersection": ".00269762",
        "jupiter_tisserand_invariant": "3.550",
        "epoch_osculation": "2459000.5",
        "eccentricity": ".550733815556056",
        "semi_major_axis": "2.079107726776003",
        "inclination": "7.158817093776593",
        "ascending_node_longitude": "86.17883975502406",
        "orbital_period": "1094.999486485414",
        "perihelion_distance": ".9340727954565765",
        "perihelion_argument": "139.283340915902",
        "aphelion_distance": "3.224142658095429",
        "perihelion_time": "2458985.044535934568",
        "mean_anomaly": "5.08125084278713",
        "mean_motion": ".3287672774673904",
        "equinox": "J2000",
        "orbit_class": {
            "orbit_class_type": "APO",
            "orbit_class_description": "Near-Earth asteroid orbits which cross the Earth’s orbit similar to that of 1862 Apollo",
            "orbit_class_range": "a (semi-major axis) > 1.0 AU; q (perihelion) < 1.017 AU"
        }
    },
    "is_sentry_object": false
}